{"fetched_at":"2026-05-26T18:25:56Z","count":9911,"tles":[{"name":"STARLINK-35766","line1":"1 67181U 25303U   26145.55758525  .00026249  00000+0  95971-3 0  9992","line2":"2 67181  43.0012 236.3829 0001601 277.8554  82.2116 15.27590400 24496","category":"Starlink"},{"name":"STARLINK-1228","line1":"1 45188U 20012L   23362.18468819  .00000812  00000+0  73400-4 0  9990","line2":"2 45188  53.0545   8.8859 0001606 100.4545 259.6625 15.06391034213452","category":"Starlink"},{"name":"STARLINK-5619","line1":"1 55755U 23028Q   26038.70950157  .13192168  45151-5  17907-3 0  9994","line2":"2 55755  69.9796 302.7164 0007925 229.3919 130.6628 16.48838805161977","category":"Starlink"},{"name":"STARLINK-11492 [DTC]","line1":"1 62224U 24231G   26145.25448628  .00144040  00000+0  11705-2 0  9993","line2":"2 62224  53.1568  84.0775 0001093  92.7758 267.3385 15.69765560 85432","category":"Starlink"},{"name":"STARLINK-35037","line1":"1 65483U 25195AB  26144.83936536  .00028912  00000+0  98409-3 0  9992","line2":"2 65483  53.1562 264.3713 0000604 107.5384 252.5683 15.30213501 41630","category":"Starlink"},{"name":"GONETS-M 4","line1":"1 38736U 12041D   26145.58677376  .00000097  00000+0  61595-3 0  9996","line2":"2 38736  82.4779  84.9311 0026314 100.9353 259.4690 12.43903502620146","category":"Other"},{"name":"STARLINK-4355","line1":"1 53048U 22077F   26145.47731817  .00009200  00000+0  64164-3 0  9998","line2":"2 53048  97.4468 326.5447 0001414 114.2380 245.8995 15.05606092212539","category":"Starlink"},{"name":"STARLINK-11135 [DTC]","line1":"1 60048U 24112L   26145.01564595  .00001554  00000+0  17680-4 0  9991","line2":"2 60048  53.1589 249.6764 0000973  62.2102 297.9014 15.69710089112979","category":"Starlink"},{"name":"STARLINK-37097","line1":"1 68238U 26054G   26145.58335648 -.00009672  00000+0 -26672-3 0  9995","line2":"2 68238  53.1597 292.9961 0000919  63.7686 103.1911 15.35399983  5907","category":"Starlink"},{"name":"FENGYUN 1C DEB","line1":"1 31035U 99025BED 23173.47869506  .00003967  00000+0  11285-2 0  9991","line2":"2 31035  98.6369 265.6835 0233691  45.0374  12.6097 14.31113374843601","category":"Weather"},{"name":"STARLINK-6142","line1":"1 57113U 23090N   26145.50992014  .00001353  00000+0  58666-4 0  9995","line2":"2 57113  43.0021 207.4911 0001508 268.8515  91.2164 15.27585516162087","category":"Starlink"},{"name":"YUNYAO-1 43","line1":"1 63344U 25059A   26145.56918373  .00003082  00000+0  18892-3 0  9994","line2":"2 63344  97.6109 327.0575 0013400 227.8135 132.1958 15.10843404 64884","category":"Other"},{"name":"STARLINK-35818","line1":"1 66540U 25265AA  26145.55281045  .00005836  00000+0  22162-3 0  9996","line2":"2 66540  43.0039 204.2832 0001788 273.6452  86.4195 15.27554180 28861","category":"Starlink"},{"name":"STARLINK-6351","line1":"1 76351C 23094Y   23189.75812500  .00533817  00000-0  76649-3 0  1894","line2":"2 76351  42.9958 313.5846 0076984 152.4316   0.6985 15.98173891    18","category":"Starlink"},{"name":"STARLINK-2674","line1":"1 48354U 21038B   26145.02674861  .00005526  00000+0  18965-3 0  9999","line2":"2 48354  53.1607   3.1711 0001125  89.3558 270.7572 15.31708557278771","category":"Starlink"},{"name":"STARLINK-30499","line1":"1 57918U 23147F   26145.26887753 -.00000296  00000+0 -12254-5 0  9998","line2":"2 57918  43.0025 107.7426 0001366 271.5809  88.4886 15.27575501150041","category":"Starlink"},{"name":"ZHONGXING-5","line1":"1 14985U 84049A   26104.42181035 -.00000084  00000+0  00000+0 0  9990","line2":"2 14985  14.3784 348.7970 0009015 245.6449  17.8750  0.99978795130660","category":"Other"},{"name":"SPARK 1","line1":"1 41900U 16081C   26145.45685130  .00000572  00000+0  12998-3 0  9995","line2":"2 41900  98.5481 139.2417 0024396  32.9707 327.3008 14.59757594500958","category":"Other"},{"name":"YAOGAN-36 01C","line1":"1 53947U 22120E   26145.36932582  .00021682  00000+0  58628-3 0  9991","line2":"2 53947  35.0047  24.8403 0005400 297.2091  62.8077 15.36783323204286","category":"Other"},{"name":"CZ-6A DEB","line1":"1 60816U 24140GT  24249.27712492  .00008948  00000+0  36931-2 0  9999","line2":"2 60816  89.0664 348.0332 0014763 173.8131 186.3248 14.26637267  3395","category":"Other"},{"name":"FENGYUN 1C DEB","line1":"1 32126U 99025CRU 26104.92353601  .00000515  00000+0  60714-3 0  9992","line2":"2 32126  99.1008 336.9866 0280455 299.7029  57.6466 13.57047778633854","category":"Weather"},{"name":"INTELSAT 33E DEB","line1":"1 64403U 16053AH  26104.02780542  .00000098  00000+0  00000+0 0  9998","line2":"2 64403   1.2670  64.6786 0065533 338.9913  21.2781  1.00721289  5310","category":"Other"},{"name":"COSMOS 2251 DEB","line1":"1 35439U 93036AKH 26104.28613153  .00001495  00000+0  90925-3 0  9993","line2":"2 35439  74.0170 284.6336 0241961  66.8183 109.3341 13.93487796856672","category":"Other"},{"name":"STARLINK-3177","line1":"1 51138U 22005AL  26145.49612699  .00000561  00000+0  53354-4 0  9996","line2":"2 51138  53.2123 314.3224 0001348  93.9406 266.1741 15.08837814240325","category":"Starlink"},{"name":"ADRAS-J","line1":"1 58992U 24034A   26145.60614738  .00077046  00000+0  10483-2 0  9990","line2":"2 58992  98.2237 173.7133 0176430 191.8514 167.8554 15.41142300124106","category":"Other"},{"name":"FENGYUN 4C","line1":"1 67246U 25312A   26145.61005281  .00000000  00000+0  00000+0 0  9997","line2":"2 67246   0.0107  92.7067 0001095  50.2978  92.8073  1.00268510  1555","category":"Weather"},{"name":"BREEZE-M R/B","line1":"1 29527U 06051B   26100.05381042  .00000105  00000+0  00000+0 0  9993","line2":"2 29527  14.7872 354.7637 6342161 271.1763  21.9787  2.09456487148542","category":"Other"},{"name":"STARLINK-1302","line1":"1 45375U 20019R   26145.24306333  .00045034  00000+0  44085-3 0  9997","line2":"2 45375  53.0454 138.6237 0005520  27.1332 332.9970 15.65675954341898","category":"Starlink"},{"name":"ONEWEB-0663","line1":"1 55823U 23029AD  26145.36122800  .00000017  00000+0  87488-5 0  9996","line2":"2 55823  87.9179 279.0525 0001566  88.1777 271.9535 13.20867522158138","category":"Other"},{"name":"STARLINK-33565","line1":"1 62288U 24237X   26145.46047271  .00015538  00000+0  57283-3 0  9992","line2":"2 62288  42.9997 131.4983 0001036 279.4136  80.6599 15.27587660 83060","category":"Starlink"},{"name":"CZ-6A DEB","line1":"1 65547U 25199D   25279.46131884  .00000506  00000+0  18101-3 0  9997","line2":"2 65547  85.9939 157.6130 0015119 197.5532 162.5142 14.32024177  4268","category":"Other"},{"name":"EUTELSAT 70B","line1":"1 39020U 12069A   26145.38387727 -.00000045  00000+0  00000+0 0  9993","line2":"2 39020   0.0675  14.0787 0004402  41.7820  35.8087  1.00271651 49280","category":"Other"},{"name":"STARLINK-4094","line1":"1 53147U 22083R   26145.60159865 -.00020519  00000+0 -12803-2 0  9997","line2":"2 53147  53.2098 188.8499 0001257  85.4495 274.6641 15.08682422213482","category":"Starlink"},{"name":"STARLINK-11201 [DTC]","line1":"1 60113U 24118A   26145.44061476 -.00000193  00000+0  32631-5 0  9990","line2":"2 60113  53.1586 203.2225 0001034  76.5922 283.5211 15.69696531110045","category":"Starlink"},{"name":"STARLINK-37007","line1":"1 68302U 26057J   26145.32619556  .00155227  00000+0  10221-2 0  9993","line2":"2 68302  97.2842 271.6478 0001223  55.5555 304.5826 15.75205221 10353","category":"Starlink"},{"name":"FENGYUN 1C DEB","line1":"1 31148U 99025BHA 26104.15591635  .00001634  00000+0  43891-3 0  9991","line2":"2 31148  98.8566 359.7869 0135552  45.8772 315.3474 14.44260195992971","category":"Weather"},{"name":"ASTROCAST-0105","line1":"1 47517U 21006DH  26145.15019021  .00343305  00000+0  14350-2 0  9992","line2":"2 47517  97.2062 208.5546 0007143 221.2583 138.8148 15.84735532297295","category":"Other"},{"name":"STARLINK-33644","line1":"1 63414U 25065R   26145.38435619  .00013721  00000+0  50687-3 0  9995","line2":"2 63414  43.0016  34.3908 0000995 268.2192  91.8546 15.27600882 64567","category":"Starlink"},{"name":"FENGYUN 1C DEB","line1":"1 32223U 99025CVV 26103.17716683  .00001771  00000+0  81706-3 0  9998","line2":"2 32223  98.8273 187.2887 0044490 330.0428  62.2126 14.21768282659496","category":"Weather"},{"name":"STARLINK-2749","line1":"1 48429U 21040B   23362.49252377  .00003612  00000+0  26134-3 0  9999","line2":"2 48429  53.0552 157.8245 0001228 100.2256 259.8872 15.06385293147342","category":"Starlink"},{"name":"STARLINK-30519","line1":"1 57985U 23151X   26145.40391764 -.00017233  00000+0 -61726-3 0  9990","line2":"2 57985  43.0030 277.6257 0002241 267.8116  92.2479 15.27624560147263","category":"Starlink"},{"name":"COSMOS 1738","line1":"1 16667U 86027A   26104.87066691 -.00000075  00000+0  00000+0 0  9996","line2":"2 16667  10.3680 318.2380 0011943 136.5339  55.8136  1.00264141146715","category":"Other"},{"name":"ECHOSTAR 21","line1":"1 42749U 17032A   26145.58580845  .00000062  00000+0  00000+0 0  9996","line2":"2 42749   1.7735 354.2812 0002371  68.2908  41.7347  1.00271715 32872","category":"Other"},{"name":"CZ-6A DEB","line1":"1 60880U 24140KK  24249.27319665  .00014403  00000+0  27435-2 0  9997","line2":"2 60880  89.1485 348.2635 0143861 333.4911  25.8989 14.57503928  2464","category":"Other"},{"name":"BREEZE-M R/B","line1":"1 64468U 25131B   26057.94119139 -.00000171  00000+0  00000+0 0  9995","line2":"2 64468   0.4308 302.5287 3864148 160.2548 302.1848  1.04432222  2639","category":"Other"},{"name":"COSMOS 2251 DEB","line1":"1 35643U 93036ANJ 23178.69274608  .00014046  00000+0  21901-2 0  9994","line2":"2 35643  74.0060 162.6954 0038709 157.4868 202.8014 14.72428415753278","category":"Other"},{"name":"ONEWEB-0473","line1":"1 51653U 22012AH  26145.42279069 -.00000534  00000+0 -15653-2 0  9999","line2":"2 51653  87.8851  40.8087 0001922  76.9141 283.2201 13.10372128206327","category":"Other"},{"name":"SITRO-AIS 50","line1":"1 59061U 24039L   25124.14560288  .11249086  26374-5  51333-3 0  9993","line2":"2 59061  97.3842 100.7726 0008771 219.5766 140.4895 16.42537515 66303","category":"Other"}]}